[
    {
        "Altitude(m)": 611965.2325289921,
        "Argument of Periapsis(deg)": 0.0,
        "Eccentricity": 0.0,
        "Inclination(deg)": 60.0,
        "Latitude(deg)": 59.14030455805508,
        "Longitude(deg)": 68.96972223864708,
        "Mean Anomaly(deg)": 81.81819999999999,
        "RAAN(deg)": 95.0,
        "Satellite Name": "Test1 423",
        "Satellite Number": 423,
        "Semi-Major Axis(m)": 6980739.136638005,
        "Time(s)": 0
    },
    {
        "Altitude(m)": 611995.8582709742,
        "Argument of Periapsis(deg)": 0.00010418945913296404,
        "Eccentricity": 0.0,
        "Inclination(deg)": 60.0,
        "Latitude(deg)": 59.28340564616567,
        "Longitude(deg)": 70.10308863653421,
        "Mean Anomaly(deg)": 82.43830614546184,
        "RAAN(deg)": 94.99957995086027,
        "Satellite Name": "Test1 423",
        "Satellite Number": 423,
        "Semi-Major Axis(m)": 6980739.136638005,
        "Time(s)": 10
    }
]